[{"OBJECT_NAME":"STARLINK-3264","OBJECT_ID":"2021-125AU","EPOCH":"2026-03-09T16:16:09.572448","MEAN_MOTION":15.08838828,"ECCENTRICITY":0.00012016,"INCLINATION":53.217,"RA_OF_ASC_NODE":239.1737,"ARG_OF_PERICENTER":106.1707,"MEAN_ANOMALY":253.9418,"EPHEMERIS_TYPE":0,"CLASSIFICATION_TYPE":"U","NORAD_CAT_ID":50198,"ELEMENT_SET_NO":999,"REV_AT_EPOCH":23673,"BSTAR":4.3412221e-5,"MEAN_MOTION_DOT":4.03e-6,"MEAN_MOTION_DDOT":0},{"OBJECT_NAME":"COSMOS 2251 DEB","OBJECT_ID":"1993-036EU","EPOCH":"2026-03-09T14:44:02.306976","MEAN_MOTION":15.10275873,"ECCENTRICITY":0.0002082,"INCLINATION":74.0027,"RA_OF_ASC_NODE":262.4484,"ARG_OF_PERICENTER":258.1067,"MEAN_ANOMALY":101.9891,"EPHEMERIS_TYPE":0,"CLASSIFICATION_TYPE":"U","NORAD_CAT_ID":33939,"ELEMENT_SET_NO":999,"REV_AT_EPOCH":90059,"BSTAR":0.0040153,"MEAN_MOTION_DOT":0.00066338,"MEAN_MOTION_DDOT":0}]
